{"type": "FeatureCollection", "features": [{"type": "Feature", "geometry": {"type": "Point", "coordinates": [106.8456, -6.2088]}, "properties": {"id": "jakarta", "name": "Jakarta", "country": "Indonesia", "sector": "Bay North · Erosion Line", "rank": 1, "risk": "critical", "ocean": [1, 0], "marker": "barrier", "phase": 1, "phaseMax": 4, "milestone": "Bay Erosion Barrier Construction", "fund": 310000, "kpis": [{"n": "8.5", "u": "KM"}, {"n": "42k", "u": "PPL"}, {"n": "12", "u": "IoT"}], "tags": ["barriers"], "shoreline": 18.4, "cleanups": 1, "operators": 28, "hash": "0.0.78421@1726584400.441221903"}}, {"type": "Feature", "geometry": {"type": "Point", "coordinates": [120.9842, 14.5995]}, "properties": {"id": "manila", "name": "Manila", "country": "Philippines", "sector": "Manila Bay · Reef Line", "rank": 2, "risk": "critical", "ocean": [0, -1], "marker": "coral", "phase": 3, "phaseMax": 4, "milestone": "Artificial Reef Structure Deployment", "fund": 145000, "kpis": [{"n": "2.5k", "u": "CORAL"}, {"n": "+38%", "u": "FISH"}, {"n": "15", "u": "CO-OP"}], "tags": ["coral"], "shoreline": 9.2, "cleanups": 2, "operators": 15, "hash": "0.0.78422@1726584412.882901334"}}, {"type": "Feature", "geometry": {"type": "Point", "coordinates": [106.6297, 10.8231]}, "properties": {"id": "hcmc", "name": "Ho Chi Minh", "country": "Vietnam", "sector": "Mekong Delta · Saline Edge", "rank": 3, "risk": "critical", "ocean": [-0.7, 0.7], "marker": "mangrove", "phase": 2, "phaseMax": 4, "milestone": "Delta Sediment & Vegetation Replanting", "fund": 210000, "kpis": [{"n": "85k", "u": "TREES"}, {"n": "24", "u": "KM"}, {"n": "520", "u": "FAM"}], "tags": ["mangroves", "barriers"], "shoreline": 24.0, "cleanups": 1, "operators": 42, "hash": "0.0.78423@1726584425.109334872"}}, {"type": "Feature", "geometry": {"type": "Point", "coordinates": [3.3792, 6.5244]}, "properties": {"id": "lagos", "name": "Lagos", "country": "Nigeria", "sector": "Barrier Island · Atlantic", "rank": 4, "risk": "critical", "ocean": [-1, 0], "marker": "plastic", "phase": 2, "phaseMax": 4, "milestone": "Floating Waste Trap Deployment", "fund": 250000, "kpis": [{"n": "310t", "u": "PLASTIC"}, {"n": "14.2", "u": "KM"}, {"n": "4", "u": "SKIM"}], "tags": ["plastic", "barriers"], "shoreline": 14.2, "cleanups": 4, "operators": 24, "hash": "0.0.78424@1726584438.551002119"}}, {"type": "Feature", "geometry": {"type": "Point", "coordinates": [-80.1918, 25.7617]}, "properties": {"id": "miami", "name": "Miami", "country": "USA", "sector": "Biscayne · Living Shore", "rank": 5, "risk": "elevated", "ocean": [0, 1], "marker": "coral", "phase": 2, "phaseMax": 4, "milestone": "Living Shoreline Hybrid Modules", "fund": 400000, "kpis": [{"n": "1.2k", "u": "CORAL"}, {"n": "6.8", "u": "KM"}, {"n": "99.8", "u": "%IOT"}], "tags": ["coral", "barriers"], "shoreline": 6.8, "cleanups": 1, "operators": 18, "hash": "0.0.78425@1726584451.773448201"}}, {"type": "Feature", "geometry": {"type": "Point", "coordinates": [72.8777, 19.076]}, "properties": {"id": "mumbai", "name": "Mumbai", "country": "India", "sector": "Mithi Estuary · Creek", "rank": 6, "risk": "elevated", "ocean": [-0.3, -1], "marker": "plastic", "phase": 3, "phaseMax": 4, "milestone": "Mithi River Estuary Reclaim", "fund": 175000, "kpis": [{"n": "145t", "u": "WASTE"}, {"n": "600", "u": "HA"}, {"n": "8", "u": "TEL"}], "tags": ["plastic"], "shoreline": 12.5, "cleanups": 3, "operators": 22, "hash": "0.0.78426@1726584464.220198774"}}, {"type": "Feature", "geometry": {"type": "Point", "coordinates": [39.6682, -4.0435]}, "properties": {"id": "mombasa", "name": "Mombasa", "country": "Kenya", "sector": "Kilifi Coastal Line", "rank": 7, "risk": "elevated", "ocean": [0, 1], "marker": "mangrove", "phase": 3, "phaseMax": 4, "milestone": "Community Estuary Replanting", "fund": 120000, "kpis": [{"n": "120k", "u": "SEED"}, {"n": "85t", "u": "WASTE"}, {"n": "320", "u": "OPS"}], "tags": ["mangroves", "plastic"], "shoreline": 16.4, "cleanups": 2, "operators": 86, "hash": "0.0.78427@1726584477.998112045"}}, {"type": "Feature", "geometry": {"type": "Point", "coordinates": [151.2093, -33.8688]}, "properties": {"id": "sydney", "name": "Sydney", "country": "Australia", "sector": "Harbour · Living Seawall", "rank": 8, "risk": "managed", "ocean": [0, 1], "marker": "barrier", "phase": 4, "phaseMax": 4, "milestone": "Living Seawall Tile Expansion", "fund": 220000, "kpis": [{"n": "850", "u": "TILE"}, {"n": "12.5", "u": "HA"}, {"n": "45", "u": "SPP"}], "tags": ["barriers", "coral"], "shoreline": 11.2, "cleanups": 1, "operators": 22, "hash": "0.0.78428@1726584490.334889120"}}, {"type": "Feature", "geometry": {"type": "Point", "coordinates": [18.4241, -33.9249]}, "properties": {"id": "capetown", "name": "Cape Town", "country": "South Africa", "sector": "Seaforest Sanctuary", "rank": 9, "risk": "managed", "ocean": [-0.5, -0.85], "marker": "kelp", "phase": 4, "phaseMax": 4, "milestone": "Great African Seaforest Audit", "fund": 180000, "kpis": [{"n": "4.2k", "u": "HA"}, {"n": "92", "u": "SPP"}, {"n": "18", "u": "DRONE"}], "tags": ["mangroves"], "shoreline": 8.6, "cleanups": 1, "operators": 18, "hash": "0.0.78429@1726584503.667221908"}}, {"type": "Feature", "geometry": {"type": "Point", "coordinates": [4.4777, 51.9244]}, "properties": {"id": "rotterdam", "name": "Rotterdam", "country": "Netherlands", "sector": "Estuarine Bio-Parks", "rank": 10, "risk": "managed", "ocean": [0.5, -0.85], "marker": "energy", "phase": 4, "phaseMax": 4, "milestone": "Estuarine Biodiversity Parks", "fund": 290000, "kpis": [{"n": "12", "u": "ISLE"}, {"n": "1.8k", "u": "MWH"}, {"n": "100", "u": "%HCS"}], "tags": ["barriers"], "shoreline": 21.2, "cleanups": 2, "operators": 45, "hash": "0.0.78430@1726584516.102334556"}}]}