{"type": "FeatureCollection", "features": [{"type": "Feature", "geometry": {"type": "Point", "coordinates": [106.782, -6.2019]}, "properties": {"city": "jakarta", "type": "uni", "name": "BINUS University"}}, {"type": "Feature", "geometry": {"type": "Point", "coordinates": [106.7902, -6.1684]}, "properties": {"city": "jakarta", "type": "uni", "name": "Universitas Trisakti"}}, {"type": "Feature", "geometry": {"type": "Point", "coordinates": [106.8473, -6.2374]}, "properties": {"city": "jakarta", "type": "hs", "name": "SMA Negeri 8 Jakarta"}}, {"type": "Feature", "geometry": {"type": "Point", "coordinates": [106.7994, -6.2411]}, "properties": {"city": "jakarta", "type": "hs", "name": "SMA Negeri 70 Jakarta"}}, {"type": "Feature", "geometry": {"type": "Point", "coordinates": [120.9859, 14.5772]}, "properties": {"city": "manila", "type": "uni", "name": "UP Manila"}}, {"type": "Feature", "geometry": {"type": "Point", "coordinates": [120.9932, 14.5642]}, "properties": {"city": "manila", "type": "uni", "name": "De La Salle University"}}, {"type": "Feature", "geometry": {"type": "Point", "coordinates": [120.9893, 14.6097]}, "properties": {"city": "manila", "type": "uni", "name": "University of Santo Tomas"}}, {"type": "Feature", "geometry": {"type": "Point", "coordinates": [120.9814, 14.5912]}, "properties": {"city": "manila", "type": "hs", "name": "Manila Science High School"}}, {"type": "Feature", "geometry": {"type": "Point", "coordinates": [106.694, 10.7295]}, "properties": {"city": "hcmc", "type": "uni", "name": "RMIT Vietnam"}}, {"type": "Feature", "geometry": {"type": "Point", "coordinates": [106.693, 10.78]}, "properties": {"city": "hcmc", "type": "uni", "name": "UEH University"}}, {"type": "Feature", "geometry": {"type": "Point", "coordinates": [106.6798, 10.7752]}, "properties": {"city": "hcmc", "type": "hs", "name": "Le Hong Phong High School"}}, {"type": "Feature", "geometry": {"type": "Point", "coordinates": [106.6954, 10.7768]}, "properties": {"city": "hcmc", "type": "hs", "name": "Nguyen Thi Minh Khai HS"}}, {"type": "Feature", "geometry": {"type": "Point", "coordinates": [3.3873, 6.5158]}, "properties": {"city": "lagos", "type": "uni", "name": "University of Lagos"}}, {"type": "Feature", "geometry": {"type": "Point", "coordinates": [3.2004, 6.4692]}, "properties": {"city": "lagos", "type": "uni", "name": "Lagos State University"}}, {"type": "Feature", "geometry": {"type": "Point", "coordinates": [3.396, 6.4501]}, "properties": {"city": "lagos", "type": "hs", "name": "King's College Lagos"}}, {"type": "Feature", "geometry": {"type": "Point", "coordinates": [3.3901, 6.4552]}, "properties": {"city": "lagos", "type": "hs", "name": "CMS Grammar School"}}, {"type": "Feature", "geometry": {"type": "Point", "coordinates": [-80.2793, 25.7217]}, "properties": {"city": "miami", "type": "uni", "name": "University of Miami"}}, {"type": "Feature", "geometry": {"type": "Point", "coordinates": [-80.3733, 25.7541]}, "properties": {"city": "miami", "type": "uni", "name": "Florida International Univ."}}, {"type": "Feature", "geometry": {"type": "Point", "coordinates": [-80.1331, 25.7954]}, "properties": {"city": "miami", "type": "hs", "name": "Miami Beach Senior High"}}, {"type": "Feature", "geometry": {"type": "Point", "coordinates": [-80.1622, 25.7324]}, "properties": {"city": "miami", "type": "hs", "name": "MAST Academy"}}, {"type": "Feature", "geometry": {"type": "Point", "coordinates": [72.8331, 18.9297]}, "properties": {"city": "mumbai", "type": "uni", "name": "University of Mumbai"}}, {"type": "Feature", "geometry": {"type": "Point", "coordinates": [72.8314, 18.9433]}, "properties": {"city": "mumbai", "type": "uni", "name": "St. Xavier's College"}}, {"type": "Feature", "geometry": {"type": "Point", "coordinates": [72.9154, 19.1334]}, "properties": {"city": "mumbai", "type": "uni", "name": "IIT Bombay"}}, {"type": "Feature", "geometry": {"type": "Point", "coordinates": [72.8334, 18.9378]}, "properties": {"city": "mumbai", "type": "hs", "name": "Cathedral & John Connon"}}, {"type": "Feature", "geometry": {"type": "Point", "coordinates": [39.6684, -4.0369]}, "properties": {"city": "mombasa", "type": "uni", "name": "Technical Univ. of Mombasa"}}, {"type": "Feature", "geometry": {"type": "Point", "coordinates": [39.8561, -3.6274]}, "properties": {"city": "mombasa", "type": "uni", "name": "Pwani University"}}, {"type": "Feature", "geometry": {"type": "Point", "coordinates": [39.6772, -4.0621]}, "properties": {"city": "mombasa", "type": "hs", "name": "Mama Ngina Girls High"}}, {"type": "Feature", "geometry": {"type": "Point", "coordinates": [39.6664, -4.0532]}, "properties": {"city": "mombasa", "type": "hs", "name": "Allidina Visram High School"}}, {"type": "Feature", "geometry": {"type": "Point", "coordinates": [151.1873, -33.8883]}, "properties": {"city": "sydney", "type": "uni", "name": "University of Sydney"}}, {"type": "Feature", "geometry": {"type": "Point", "coordinates": [151.2005, -33.8832]}, "properties": {"city": "sydney", "type": "uni", "name": "UTS"}}, {"type": "Feature", "geometry": {"type": "Point", "coordinates": [151.2312, -33.9173]}, "properties": {"city": "sydney", "type": "uni", "name": "UNSW"}}, {"type": "Feature", "geometry": {"type": "Point", "coordinates": [151.2198, -33.8943]}, "properties": {"city": "sydney", "type": "hs", "name": "Sydney Boys High School"}}, {"type": "Feature", "geometry": {"type": "Point", "coordinates": [18.4612, -33.9577]}, "properties": {"city": "capetown", "type": "uni", "name": "University of Cape Town"}}, {"type": "Feature", "geometry": {"type": "Point", "coordinates": [18.4298, -33.9324]}, "properties": {"city": "capetown", "type": "uni", "name": "CPUT Cape Town"}}, {"type": "Feature", "geometry": {"type": "Point", "coordinates": [18.4624, -33.9701]}, "properties": {"city": "capetown", "type": "hs", "name": "SACS High School"}}, {"type": "Feature", "geometry": {"type": "Point", "coordinates": [18.4781, -33.9612]}, "properties": {"city": "capetown", "type": "hs", "name": "Rondebosch Boys High"}}, {"type": "Feature", "geometry": {"type": "Point", "coordinates": [4.5258, 51.918]}, "properties": {"city": "rotterdam", "type": "uni", "name": "Erasmus University"}}, {"type": "Feature", "geometry": {"type": "Point", "coordinates": [4.4831, 51.9172]}, "properties": {"city": "rotterdam", "type": "uni", "name": "Rotterdam UAS"}}, {"type": "Feature", "geometry": {"type": "Point", "coordinates": [4.4692, 51.9174]}, "properties": {"city": "rotterdam", "type": "hs", "name": "Gymnasium Erasmianum"}}, {"type": "Feature", "geometry": {"type": "Point", "coordinates": [4.4678, 51.9051]}, "properties": {"city": "rotterdam", "type": "hs", "name": "Wolfert Tweetalig"}}]}